HELIOS 2A               
1 28492U 04049A   22349.50099428  .00002368  00000+0  22954-3 0  9992
2 28492  98.2567 301.2164 0013392 202.5138 157.5514 14.93687414962147
SPIRALE A               
1 33751U 09008C   22349.53035398  .00000170  00000+0  49950-3 0  9999
2 33751   2.0928  82.3353 5459236 229.2163  68.4627  4.58894612203044
SPIRALE B               
1 33752U 09008D   22348.40362626  .00001731  00000+0  82904-3 0  9992
2 33752   2.2049  20.6747 6836664 342.6702   2.4309  2.83513064130170
SAPPHIRE                
1 39088U 13009C   22349.30268754  .00000124  00000+0  59323-4 0  9998
2 39088  98.4159 180.4824 0012511  98.5664 261.6940 14.34350824513068
